#dP2024  5 27  0  0  0.00000000      96 __u+U IGS20 EXT  IAC
## 2316  86400.00000000   900.00000000 60457 0.0000000000000
+   53   G02G03G04G05G06G08G09G10G11G12G13G14G15G16G17G18G19
+        G20G21G22G23G24G25G26G27G28G29G30G31G32R01R02R03R04
+        R05R07R08R09R11R12R13R14R15R16R17R18R19R20R21R22R24
+        R25R26  0  0  0  0  0  0  0  0  0  0  0  0  0  0  0
+          0  0  0  0  0  0  0  0  0  0  0  0  0  0  0  0  0
++         9  9  9  8  9  7  8  8  7 10  9  9  7  9  8  9  8
++         8  9  7  7  8  9  8  8  8  8  9  9  7 11 10  8  9
++         8  9  8  8  8 10  9  8  7  8  8  8  8  8  9  9  9
++         9  8  0  0  0  0  0  0  0  0  0  0  0  0  0  0  0
++         0  0  0  0  0  0  0  0  0  0  0  0  0  0  0  0  0
%c M  cc GPS ccc cccc cccc cccc cccc ccccc ccccc ccccc ccccc
%c cc cc ccc ccc cccc cccc cccc cccc ccccc ccccc ccccc ccccc
%f  0.0000000  0.000000000  0.00000000000  0.000000000000000
%f  0.0000000  0.000000000  0.00000000000  0.000000000000000
%i    0    0    0    0      0      0      0      0         0
%i    0    0    0    0      0      0      0      0         0
/* IAC                                ULTRA-RAPID PREDICTION
/* S/V CLOCKS ARE ALIGNED TO GNSS TIME                      
/* G:C1WC2W R:C1PC2P E:C1XC5X C:C2IC6I J:C1CC2S             
/* PCV:IGS20_2290 OL/AL:FES2004  NONE     YN ORB:CoN CLK:CoN
*  2024 05 27  4  0  0.00000000
PG02 -20895.958275 -11014.673872  12907.606386   -428.932958
PG03 -15905.856860   1041.767078  21065.543178    383.828895
PG04 -26192.778770  -1654.392963   4551.360981    369.984345
PG05   9106.473457  14609.364332 -20380.116075   -174.152779
PG06   1390.294999  20935.478326  16276.935901    251.886008
PG08 -21580.150836  -7343.489911 -14087.075957    199.416531
PG09 -24193.935755   8150.471953  -7504.980454    211.502269
PG10  10256.808198 -24282.154974   1308.909316    -30.465788
PG11  11343.653761  23618.882036   4548.054896   -671.806131
PG12  15623.104289   2026.319601  21094.111785   -508.872258
PG13  13883.406804  13388.470483 -18569.125231    653.542915
PG14 -13212.807515  22762.000335  -2549.911068    410.639593
PG15  22099.827218   5396.196084 -14362.383262    163.439589
PG16  -5403.122770 -17636.708838 -19278.666302   -280.917865
PG17 -14585.989011  13109.382283  18405.942309    702.380541
PG18  13083.769983  -7248.834064 -21941.869161   -616.568878
PG19  -4443.023360  14701.552651  21446.847281    487.766648
PG20   3751.325667  22767.272677 -13225.826268    375.120500
PG21 -20782.075814 -15553.933874   8178.170023    119.210060
PG22  -9041.248963  24457.264062   6230.870147    -19.170629
PG23  15646.366885 -18513.088335 -10600.222537    235.426187
PG24  20949.256234  13084.731788   9872.925350   -473.122969
PG25  17495.115068  -8643.618105  17564.525127    496.406264
PG26   2485.281415 -24925.533263  -8404.025452    146.734171
PG27 -11200.747950 -13244.076497 -20516.654621    -25.811434
PG28    285.220143 -19927.975920  17546.418888   -261.613414
PG29  25830.733027  -3946.102955  -5146.423984   -596.837580
PG30  -5765.326735  16807.318765 -19514.112943   -384.053093
PG31  -8164.952969 -23360.928011   8878.860935   -227.682801
PG32  11229.271592 -14643.770421  19242.506081   -617.697817
PR01  -2620.406532 -10940.332307  22898.941177     86.584340
PR02 -17733.754134   -798.664737  18393.899384    -23.082335
PR03 -23262.085056  10006.362571   3351.478609    100.918706
PR04 -16119.690666  14736.292735 -13154.074433    238.280248
PR05   -327.172939  11789.981170 -22605.010576    132.108057
PR07  23132.796512 -10410.726500  -2389.648650     83.253826
PR08  15685.384236 -14971.985239  13473.428385     -4.219740
PR09  10058.110661  10862.613217  20770.350254    188.832245
PR11   6468.790558 -21764.620950  11656.587657     23.394894
PR12  -2479.038451 -24196.904436  -7639.637308     40.604423
PR13  -8935.989696 -13614.599559 -19642.926585    -47.765520
PR14 -10857.569621   7917.351691 -21661.883562     26.514221
PR15  -6016.647441  22603.262228 -10143.779502     79.415447
PR16   2461.411919  24240.264146   7499.486886     25.938678
PR17 -17815.104959  -1834.565846  18146.289349     90.388168
PR18  -4782.360635   9445.366327  23213.605925    144.043914
PR19   8860.817234  16159.694308  17630.263850   -278.097332
PR20  21013.440609  14309.069028  -1805.080546   -113.452157
PR21  17917.793864   2219.713276 -18037.596518   -104.171397
PR22   4117.623106 -10397.271944 -22905.152345    108.898387
PR24 -21756.317182 -13092.021110   2362.081296    -57.425993
PR25  17757.558193   2174.442696 -18190.913227    -38.735462
PR26  16590.759182 -14980.478927  12336.219309     -7.555851
*  2024 05 27  4 15  0.00000000
PG02 -21613.192840 -12067.774422  10490.880812   -428.926747
PG03 -14980.818080  -1256.958632  21727.609116    383.846038
PG04 -25542.622623  -1938.973789   7299.720955    369.991844
PG05   8248.627050  16663.891849 -19110.984361   -174.153843
PG06    140.745634  19426.766974  18118.833577    251.867872
PG08 -19931.716064  -7781.402296 -16110.768925    199.434116
PG09 -24915.438818   8009.792984  -4773.255642    211.515138
PG10  10436.884681 -24162.397767  -1612.750262    -30.472234
PG11  10775.231111  23191.160247   7303.619519   -671.814064
PG12  14534.392330   4276.199186  21530.568843   -508.875152
PG13  11727.138639  13447.240629 -19956.172367    653.545475
PG14 -13305.891698  22216.749735  -5340.094797    410.647934
PG15  20543.697097   6054.042124 -16326.749847    163.443341
PG16  -4305.625188 -19398.854926 -17736.343686   -280.908745
PG17 -16515.435095  13111.658452  16665.062002    702.376824
PG18  14536.134555  -5226.874734 -21617.575802   -616.573749
PG19  -6901.759809  14678.773280  20772.907326    487.771567
PG20   3231.950025  24068.381451 -10872.911182    375.119347
PG21 -21143.123501 -16186.454022   5519.194606    119.208024
PG22  -9471.970054  24797.628946   3460.973707    -19.175253
PG23  15324.427594 -17178.923504 -13047.852137    235.434601
PG24  21439.147377  14033.384867   7333.445039   -473.125753
PG25  16843.976135  -6569.257989  19034.343140    496.406850
PG26   3064.141442 -25581.265775  -5747.748883    146.728920
PG27  -8900.524705 -13604.872836 -21364.062461    -25.812873
PG28   1712.493824 -18384.501636  19081.830384   -261.628398
PG29  26260.098258  -3754.271701  -2318.458177   -596.836157
PG30  -7270.491957  15022.075993 -20461.997639   -384.047653
PG31  -7238.004574 -22548.350729  11404.484988   -227.682647
PG32  13310.475810 -14785.952365  17712.123890   -617.697196
PR01   -227.831823 -12372.491510  22312.622996     86.585328
PR02 -15599.136317  -1828.681523  20168.185620    -23.082511
PR03 -22657.718488   9860.376781   6492.636820    100.919258
PR04 -17332.697960  15559.608916 -10378.441260    238.281825
PR05  -2721.348559  13120.191506 -21694.508319    132.108516
PR07  22621.418613 -10309.596069  -5563.402599     83.254489
PR08  16922.368097 -15804.890683  10731.297181     -4.220115
PR09  10125.072714  13326.754622  19238.155847    188.833998
PR11   6330.725382 -20166.544635  14306.361521     23.393739
PR12  -2594.333761 -24954.705358  -4548.790634     40.604838
PR13  -9000.706771 -15922.005846 -17790.305677    -47.765935
PR14 -10805.321726   5190.117404 -22498.295505     26.514230
PR15  -5881.478091  21179.266252 -12912.970335     79.415062
PR16   2599.557474  24974.836369   4390.967582     25.938951
PR17 -19676.003182  -2832.442092  15960.958276     90.391154
PR18  -7204.330141   7918.622865  23163.254039    144.045551
PR19   7029.073775  14761.304171  19573.704960   -278.098664
PR20  21154.903330  14140.976473   1443.618269   -113.452589
PR21  19761.778034   3213.173653 -15827.923472   -104.174149
PR22   6473.678486  -8812.481386 -23023.474550    108.895381
PR24 -21914.594141 -13010.700362   -852.095351    -57.427373
PR25  19565.705269   3270.668344 -16047.352977    -38.737989
PR26  17695.094659 -15759.596696   9501.898443     -7.555217
EOF
